{"fetched_at":"2026-07-17T06:37:54.961Z","source":"https://celestrak.org/NORAD/elements/gp.php?GROUP=qianfan&FORMAT=JSON","constellation":"qianfan","records":[{"OBJECT_NAME":"QIANFAN-113","OBJECT_ID":"2026-075E","EPOCH":"2026-07-16T18:32:04.782048","CLASSIFICATION_TYPE":"U","MEAN_MOTION":13.51018633,"ECCENTRICITY":0.0001998,"INCLINATION":88.992,"RA_OF_ASC_NODE":317.9763,"ARG_OF_PERICENTER":107.4151,"MEAN_ANOMALY":252.7219,"EPHEMERIS_TYPE":0,"NORAD_CAT_ID":68640,"ELEMENT_SET_NO":999,"REV_AT_EPOCH":1380,"BSTAR":0.00011202,"MEAN_MOTION_DOT":8.4e-7,"MEAN_MOTION_DDOT":0},{"OBJECT_NAME":"QIANFAN-114","OBJECT_ID":"2026-075F","EPOCH":"2026-07-16T18:43:52.777344","CLASSIFICATION_TYPE":"U","MEAN_MOTION":13.51017391,"ECCENTRICITY":0.0002059,"INCLINATION":88.9916,"RA_OF_ASC_NODE":317.9933,"ARG_OF_PERICENTER":104.3855,"MEAN_ANOMALY":255.7524,"EPHEMERIS_TYPE":0,"NORAD_CAT_ID":68641,"ELEMENT_SET_NO":999,"REV_AT_EPOCH":1379,"BSTAR":0.000097341,"MEAN_MOTION_DOT":7.5e-7,"MEAN_MOTION_DDOT":0},{"OBJECT_NAME":"QIANFAN-115","OBJECT_ID":"2026-075G","EPOCH":"2026-07-16T19:25:14.625120","CLASSIFICATION_TYPE":"U","MEAN_MOTION":13.51014141,"ECCENTRICITY":0.0002201,"INCLINATION":88.9916,"RA_OF_ASC_NODE":317.9976,"ARG_OF_PERICENTER":107.137,"MEAN_ANOMALY":253.0022,"EPHEMERIS_TYPE":0,"NORAD_CAT_ID":68642,"ELEMENT_SET_NO":999,"REV_AT_EPOCH":1379,"BSTAR":0.00011652,"MEAN_MOTION_DOT":8.7e-7,"MEAN_MOTION_DDOT":0},{"OBJECT_NAME":"QIANFAN-116","OBJECT_ID":"2026-075H","EPOCH":"2026-07-16T19:07:28.428384","CLASSIFICATION_TYPE":"U","MEAN_MOTION":13.51014693,"ECCENTRICITY":0.0001994,"INCLINATION":88.9909,"RA_OF_ASC_NODE":317.9568,"ARG_OF_PERICENTER":114.3901,"MEAN_ANOMALY":245.7458,"EPHEMERIS_TYPE":0,"NORAD_CAT_ID":68643,"ELEMENT_SET_NO":999,"REV_AT_EPOCH":1380,"BSTAR":0.00010251,"MEAN_MOTION_DOT":7.8e-7,"MEAN_MOTION_DDOT":0},{"OBJECT_NAME":"QIANFAN-117","OBJECT_ID":"2026-075J","EPOCH":"2026-07-16T18:49:41.107584","CLASSIFICATION_TYPE":"U","MEAN_MOTION":13.51012563,"ECCENTRICITY":0.0002159,"INCLINATION":88.9913,"RA_OF_ASC_NODE":317.975,"ARG_OF_PERICENTER":111.0894,"MEAN_ANOMALY":249.0488,"EPHEMERIS_TYPE":0,"NORAD_CAT_ID":68644,"ELEMENT_SET_NO":999,"REV_AT_EPOCH":1380,"BSTAR":0.0000058334,"MEAN_MOTION_DOT":1.6e-7,"MEAN_MOTION_DDOT":0},{"OBJECT_NAME":"QIANFAN-118","OBJECT_ID":"2026-075K","EPOCH":"2026-07-16T14:17:08.948544","CLASSIFICATION_TYPE":"U","MEAN_MOTION":13.51014404,"ECCENTRICITY":0.00019727,"INCLINATION":88.9918,"RA_OF_ASC_NODE":318.0038,"ARG_OF_PERICENTER":102.0879,"MEAN_ANOMALY":258.0493,"EPHEMERIS_TYPE":0,"NORAD_CAT_ID":68645,"ELEMENT_SET_NO":999,"REV_AT_EPOCH":1377,"BSTAR":0.0001033747,"MEAN_MOTION_DOT":7.9e-7,"MEAN_MOTION_DDOT":0},{"OBJECT_NAME":"QIANFAN-119","OBJECT_ID":"2026-075L","EPOCH":"2026-07-16T15:28:18.465888","CLASSIFICATION_TYPE":"U","MEAN_MOTION":13.51020723,"ECCENTRICITY":0.00022624,"INCLINATION":88.9918,"RA_OF_ASC_NODE":317.9943,"ARG_OF_PERICENTER":112.5002,"MEAN_ANOMALY":247.6389,"EPHEMERIS_TYPE":0,"NORAD_CAT_ID":68646,"ELEMENT_SET_NO":999,"REV_AT_EPOCH":1378,"BSTAR":0.000087881421,"MEAN_MOTION_DOT":6.9e-7,"MEAN_MOTION_DDOT":0},{"OBJECT_NAME":"QIANFAN-120","OBJECT_ID":"2026-075M","EPOCH":"2026-07-16T13:59:35.700576","CLASSIFICATION_TYPE":"U","MEAN_MOTION":13.51021161,"ECCENTRICITY":0.00024165,"INCLINATION":88.992,"RA_OF_ASC_NODE":317.9861,"ARG_OF_PERICENTER":112.511,"MEAN_ANOMALY":247.6297,"EPHEMERIS_TYPE":0,"NORAD_CAT_ID":68647,"ELEMENT_SET_NO":999,"REV_AT_EPOCH":1378,"BSTAR":0.00010779654,"MEAN_MOTION_DOT":8.2e-7,"MEAN_MOTION_DDOT":0},{"OBJECT_NAME":"QIANFAN-121","OBJECT_ID":"2026-075N","EPOCH":"2026-07-16T14:34:58.350720","CLASSIFICATION_TYPE":"U","MEAN_MOTION":13.5101325,"ECCENTRICITY":0.00020449,"INCLINATION":88.9918,"RA_OF_ASC_NODE":317.9879,"ARG_OF_PERICENTER":102.4833,"MEAN_ANOMALY":257.6547,"EPHEMERIS_TYPE":0,"NORAD_CAT_ID":68648,"ELEMENT_SET_NO":999,"REV_AT_EPOCH":1378,"BSTAR":0.000095402136,"MEAN_MOTION_DOT":7.4e-7,"MEAN_MOTION_DDOT":0},{"OBJECT_NAME":"QIANFAN-122","OBJECT_ID":"2026-075P","EPOCH":"2026-07-16T14:23:17.418624","CLASSIFICATION_TYPE":"U","MEAN_MOTION":13.5101692,"ECCENTRICITY":0.00021823,"INCLINATION":88.9916,"RA_OF_ASC_NODE":317.9866,"ARG_OF_PERICENTER":112.7932,"MEAN_ANOMALY":247.345,"EPHEMERIS_TYPE":0,"NORAD_CAT_ID":68649,"ELEMENT_SET_NO":999,"REV_AT_EPOCH":1377,"BSTAR":0.000094524402,"MEAN_MOTION_DOT":7.3e-7,"MEAN_MOTION_DDOT":0},{"OBJECT_NAME":"QIANFAN-123","OBJECT_ID":"2026-075Q","EPOCH":"2026-07-16T15:22:36.090336","CLASSIFICATION_TYPE":"U","MEAN_MOTION":13.51015319,"ECCENTRICITY":0.00023043,"INCLINATION":88.9913,"RA_OF_ASC_NODE":317.9714,"ARG_OF_PERICENTER":117.7187,"MEAN_ANOMALY":242.4198,"EPHEMERIS_TYPE":0,"NORAD_CAT_ID":68650,"ELEMENT_SET_NO":999,"REV_AT_EPOCH":1376,"BSTAR":0.000087675063,"MEAN_MOTION_DOT":6.9e-7,"MEAN_MOTION_DDOT":0},{"OBJECT_NAME":"QIANFAN-124","OBJECT_ID":"2026-075R","EPOCH":"2026-07-16T14:11:26.967840","CLASSIFICATION_TYPE":"U","MEAN_MOTION":13.51016475,"ECCENTRICITY":0.00021989,"INCLINATION":88.9916,"RA_OF_ASC_NODE":317.9862,"ARG_OF_PERICENTER":114.6898,"MEAN_ANOMALY":245.4482,"EPHEMERIS_TYPE":0,"NORAD_CAT_ID":68651,"ELEMENT_SET_NO":999,"REV_AT_EPOCH":1378,"BSTAR":0.00009833935,"MEAN_MOTION_DOT":7.6e-7,"MEAN_MOTION_DDOT":0},{"OBJECT_NAME":"QIANFAN-125","OBJECT_ID":"2026-075S","EPOCH":"2026-07-16T14:29:03.429888","CLASSIFICATION_TYPE":"U","MEAN_MOTION":13.51013462,"ECCENTRICITY":0.00020173,"INCLINATION":88.9916,"RA_OF_ASC_NODE":317.9871,"ARG_OF_PERICENTER":102.817,"MEAN_ANOMALY":257.3207,"EPHEMERIS_TYPE":0,"NORAD_CAT_ID":68652,"ELEMENT_SET_NO":999,"REV_AT_EPOCH":1378,"BSTAR":0.000091267587,"MEAN_MOTION_DOT":7.1e-7,"MEAN_MOTION_DDOT":0},{"OBJECT_NAME":"QIANFAN-126","OBJECT_ID":"2026-075T","EPOCH":"2026-07-16T14:41:00.646656","CLASSIFICATION_TYPE":"U","MEAN_MOTION":13.51018525,"ECCENTRICITY":0.00023154,"INCLINATION":88.992,"RA_OF_ASC_NODE":317.953,"ARG_OF_PERICENTER":117.0859,"MEAN_ANOMALY":243.0529,"EPHEMERIS_TYPE":0,"NORAD_CAT_ID":68653,"ELEMENT_SET_NO":999,"REV_AT_EPOCH":1380,"BSTAR":0.00009191815,"MEAN_MOTION_DOT":7.1e-7,"MEAN_MOTION_DDOT":0},{"OBJECT_NAME":"QIANFAN-127","OBJECT_ID":"2026-104A","EPOCH":"2026-07-16T17:07:57.487584","CLASSIFICATION_TYPE":"U","MEAN_MOTION":13.53075402,"ECCENTRICITY":0.0009885,"INCLINATION":88.9912,"RA_OF_ASC_NODE":338.4531,"ARG_OF_PERICENTER":27.6094,"MEAN_ANOMALY":332.5582,"EPHEMERIS_TYPE":0,"NORAD_CAT_ID":69073,"ELEMENT_SET_NO":999,"REV_AT_EPOCH":914,"BSTAR":-2.5824,"MEAN_MOTION_DOT":-0.01621319,"MEAN_MOTION_DDOT":0},{"OBJECT_NAME":"QIANFAN-128","OBJECT_ID":"2026-104B","EPOCH":"2026-07-16T18:36:25.149312","CLASSIFICATION_TYPE":"U","MEAN_MOTION":13.50885577,"ECCENTRICITY":0.0009773,"INCLINATION":88.9892,"RA_OF_ASC_NODE":338.4799,"ARG_OF_PERICENTER":17.6114,"MEAN_ANOMALY":342.5374,"EPHEMERIS_TYPE":0,"NORAD_CAT_ID":69074,"ELEMENT_SET_NO":999,"REV_AT_EPOCH":913,"BSTAR":-2.8367,"MEAN_MOTION_DOT":-0.01714754,"MEAN_MOTION_DDOT":0}]}
