QIANFAN-113             
1 68640U 26075E   26197.77227757  .00000084  00000+0  11202-3 0  9993
2 68640  88.9920 317.9763 0001998 107.4151 252.7219 13.51018633 13805
QIANFAN-114             
1 68641U 26075F   26197.78047196  .00000075  00000+0  97341-4 0  9991
2 68641  88.9916 317.9933 0002059 104.3855 255.7524 13.51017391 13796
QIANFAN-115             
1 68642U 26075G   26197.80919705  .00000087  00000+0  11652-3 0  9992
2 68642  88.9916 317.9976 0002201 107.1370 253.0022 13.51014141 13790
QIANFAN-116             
1 68643U 26075H   26197.79685681  .00000078  00000+0  10251-3 0  9998
2 68643  88.9909 317.9568 0001994 114.3901 245.7458 13.51014693 13803
QIANFAN-117             
1 68644U 26075J   26197.78450356  .00000016  00000+0  58334-5 0  9995
2 68644  88.9913 317.9750 0002159 111.0894 249.0488 13.51012563 13805
QIANFAN-118             
1 68645U 26075K   26197.59524246  .00000079  00000+0  10337-3 0  9993
2 68645  88.9918 318.0038 0001972 102.0879 258.0493 13.51014404 13775
QIANFAN-119             
1 68646U 26075L   26197.64465817  .00000069  00000+0  87881-4 0  9996
2 68646  88.9918 317.9943 0002262 112.5002 247.6389 13.51020723 13786
QIANFAN-120             
1 68647U 26075M   26197.58305209  .00000082  00000+0  10780-3 0  9996
2 68647  88.9920 317.9861 0002416 112.5110 247.6297 13.51021161 13785
QIANFAN-121             
1 68648U 26075N   26197.60761980  .00000074  00000+0  95402-4 0  9998
2 68648  88.9918 317.9879 0002044 102.4833 257.6547 13.51013250 13788
QIANFAN-122             
1 68649U 26075P   26197.59950716  .00000073  00000+0  94524-4 0  9997
2 68649  88.9916 317.9866 0002182 112.7932 247.3450 13.51016920 13775
QIANFAN-123             
1 68650U 26075Q   26197.64069549  .00000069  00000+0  87675-4 0  9994
2 68650  88.9913 317.9714 0002304 117.7187 242.4198 13.51015319 13764
QIANFAN-124             
1 68651U 26075R   26197.59128435  .00000076  00000+0  98339-4 0  9996
2 68651  88.9916 317.9862 0002198 114.6898 245.4482 13.51016475 13783
QIANFAN-125             
1 68652U 26075S   26197.60351192  .00000071  00000+0  91268-4 0  9996
2 68652  88.9916 317.9871 0002017 102.8170 257.3207 13.51013462 13786
QIANFAN-126             
1 68653U 26075T   26197.61181304  .00000071  00000+0  91918-4 0  9996
2 68653  88.9920 317.9530 0002315 117.0859 243.0529 13.51018525 13804
QIANFAN-127             
1 69073U 26104A   26197.71385981 -.01621319  00000+0 -25824+1 0  9990
2 69073  88.9912 338.4531 0009885  27.6094 332.5582 13.53075402  9141
QIANFAN-128             
1 69074U 26104B   26197.77529108 -.01714754  00000+0 -28367+1 0  9999
2 69074  88.9892 338.4799 0009773  17.6114 342.5374 13.50885577  9131
